ONEWEB-0275             
1 48993U 21060AC  25141.54110714  .00000078  00000+0  17139-3 0  9996
2 48993  87.9022 306.8429 0001663  95.5823 264.5498 13.16593536188022
ONEWEB-0276             
1 48994U 21060AD  25141.49834411  .00000063  00000+0  13064-3 0  9995
2 48994  87.9020 306.8482 0001756 103.4578 256.6749 13.16595600188035
ONEWEB-0277             
1 48995U 21060AE  25141.51102226  .00000104  00000+0  23827-3 0  9995
2 48995  87.9017 306.8821 0001438 104.9784 255.1506 13.16594332188026
ONEWEB-0278             
1 48996U 21060AF  25141.50152393  .00000073  00000+0  15838-3 0  9993
2 48996  87.9018 306.8443 0002044  98.0026 262.1337 13.16594139188153
ONEWEB-0279             
1 48997U 21060AG  25141.50943317  .00000120  00000+0  27931-3 0  9998
2 48997  87.9019 306.8390 0001438  97.8226 262.3068 13.16594534188085
ONEWEB-0280             
1 48998U 21060AH  25141.52447546  .00000175  00000+0  42365-3 0  9992
2 48998  87.9021 306.8421 0001848 106.8948 253.2386 13.16596018188026
ONEWEB-0281             
1 48999U 21060AJ  25142.21399705  .00000130  00000+0  30515-3 0  9998
2 48999  87.9021 306.7026 0001746  90.1026 270.0305 13.16593533189495
ONEWEB-0282             
1 49000U 21060AK  25141.86407849 -.00000021  00000+0 -89216-4 0  9995
2 49000  87.9017 306.7873 0001722 102.0118 258.1206 13.16595301189439
